NORAD_CAT_ID,OBJECT_NAME,OBJECT_TYPE,EPOCH,MEAN_MOTION,ECCENTRICITY,INCLINATION,RA_OF_ASC_NODE,ARG_OF_PERICENTER,MEAN_ANOMALY,BSTAR,MEAN_MOTION_DOT,MEAN_MOTION_DDOT,TLE_LINE0,TLE_LINE1,TLE_LINE2,SEMIMAJOR_AXIS,PERIOD,APOGEE,PERIGEE,DECAYED
52137.0,STARLINK-3733,PAYLOAD,2022-07-29 14:00:01,15.08861734,0.000176,53.215,230.8022,52.6962,138.1375,-0.00139,-0.00022355,0.0,0 STARLINK-3733,1 52137U 22029BB  22210.58334491 -.00022355  00000-0 -13900-2 0  9991,2 52137  53.2150 230.8022 0001760  52.6962 138.1375 15.08861734  1302,6917.814,95.436,540.896,538.461,0.0
52137.0,STARLINK-3733,PAYLOAD,2022-07-29 22:00:00,15.08813905,0.0001520999999999,53.2151,229.304,58.0438,144.4111,0.0017975,0.00028415,0.0,0 STARLINK-3733,1 52137U 22029BB  22210.91667824  .00028415  00000-0  17975-2 0  9994,2 52137  53.2151 229.3040 0001521  58.0438 144.4111 15.08813905  1304,6917.96,95.439,540.877,538.773,0.0
52137.0,STARLINK-3733,PAYLOAD,2022-07-30 14:00:01,15.08832642,0.0001689,53.2148,226.3128,51.9625,173.6538,-1.5302e-05,-5.32e-06,0.0,0 STARLINK-3733,1 52137U 22029BB  22211.58334491 -.00000532  00000-0 -15302-4 0  9995,2 52137  53.2148 226.3128 0001689  51.9625 173.6538 15.08832642  1305,6917.903,95.438,540.936,538.599,0.0
52137.0,STARLINK-3733,PAYLOAD,2022-07-30 22:00:00,15.08810359,0.0001537,53.2149,224.8147,59.4914,177.7181,0.0024299,0.00038564,0.0,0 STARLINK-3733,1 52137U 22029BB  22211.91667824  .00038564  00000-0  24299-2 0  9998,2 52137  53.2149 224.8147 0001537  59.4914 177.7181 15.08810359 21993,6917.971,95.439,540.899,538.773,0.0
52137.0,STARLINK-3733,PAYLOAD,2022-07-31 14:00:01,15.08838563,0.0001694,53.215,221.8235,53.1916,207.1785,-0.00074139,-0.00012068,0.0,0 STARLINK-3733,1 52137U 22029BB  22212.58334491 -.00012068  00000-0 -74139-3 0  9995,2 52137  53.2150 221.8235 0001694  53.1916 207.1785 15.08838563 22094,6917.885,95.438,540.922,538.578,0.0
52137.0,STARLINK-3733,PAYLOAD,2022-07-31 22:00:00,15.08811302,0.0001583,53.2155,220.3254,60.9328,211.0335,0.0025054,0.0003978,0.0,0 STARLINK-3733,1 52137U 22029BB  22212.91667824  .00039780  00000-0  25054-2 0  9990,2 52137  53.2155 220.3254 0001583  60.9328 211.0335 15.08811302  1302,6917.968000000003,95.439,540.928,538.738,0.0
52137.0,STARLINK-3733,PAYLOAD,2022-08-01 14:00:01,15.0884232,0.0001732,53.2157,217.3342,53.757,241.3694,-0.0013609,-0.00021883,0.0,0 STARLINK-3733,1 52137U 22029BB  22213.58334491 -.00021883  00000-0 -13609-2 0  9995,2 52137  53.2157 217.3342 0001732  53.7570 241.3694 15.08842320  1301,6917.873000000001,95.437,540.936,538.54,0.0
52137.0,STARLINK-3733,PAYLOAD,2022-08-01 22:00:00,15.08812695,0.0001654,53.2158,215.8362,61.5205,245.2049,0.0026088,0.00041445,0.0,0 STARLINK-3733,1 52137U 22029BB  22213.91667824  .00041445  00000-0  26088-2 0  9990,2 52137  53.2158 215.8362 0001654  61.5205 245.2049 15.08812695  1301,6917.964,95.439,540.9730000000002,538.685,0.0
52137.0,STARLINK-3733,PAYLOAD,2022-08-02 06:00:02,15.08842383,0.0001803,53.2159,214.3414,56.9431,261.4274,-0.0012799,-0.00020602,0.0,0 STARLINK-3733,1 52137U 22029BB  22214.25002315 -.00020602  00000-0 -12799-2 0  9994,2 52137  53.2159 214.3414 0001803  56.9431 261.4274 15.08842383 22343,6917.873000000001,95.437,540.985,538.491,0.0
52137.0,STARLINK-3733,PAYLOAD,2022-08-02 14:00:01,15.08849503,0.0001805,53.2159,212.845,53.8367,276.0541,-0.0016329,-0.00026189,0.0,0 STARLINK-3733,1 52137U 22029BB  22214.58334491 -.00026189  00000-0 -16329-2 0  9992,2 52137  53.2159 212.8450 0001805  53.8367 276.0541 15.08849503  1305,6917.851,95.437,540.965,538.4680000000002,0.0
52137.0,STARLINK-3733,PAYLOAD,2022-08-03 04:00:00,15.0885237,0.0001854,53.2163,210.226,58.5907,201.5878,-0.0017230999999999,-0.00027616,0.0,0 STARLINK-3733,1 52137U 22029BB  22215.16667824 -.00027616  00000-0 -17231-2 0  9995,2 52137  53.2163 210.2260 0001854  58.5907 201.5878 15.08852370 22481,6917.843000000003,95.437,540.99,538.425,0.0
52137.0,STARLINK-3733,PAYLOAD,2022-08-03 14:00:01,15.08856863,0.0001905,53.2164,208.3557,54.271,310.399,-0.0018206,-0.0002916,0.0,0 STARLINK-3733,1 52137U 22029BB  22215.58334491 -.00029160  00000-0 -18206-2 0  9991,2 52137  53.2164 208.3557 0001905  54.2710 310.3990 15.08856863  1304,6917.829000000002,95.436,541.012,538.376,0.0
52137.0,STARLINK-3733,PAYLOAD,2022-08-03 20:00:01,15.08820854,0.0001821,53.2166,207.2322,59.7468,223.6361,0.0026791999999999,0.00042587,0.0,0 STARLINK-3733,1 52137U 22029BB  22215.83334491  .00042587  00000-0  26792-2 0  9994,2 52137  53.2166 207.2322 0001821  59.7468 223.6361 15.08820854 22583,6917.939,95.439,541.064,538.544,0.0
52137.0,STARLINK-3733,PAYLOAD,2022-08-03 22:00:01,15.08826793,0.0001846,53.2166,206.8579,61.2817,315.0598,0.0025116,0.00039896,0.0,0 STARLINK-3733,1 52137U 22029BB  22215.91668981  .00039896  00000-0  25116-2 0  9995,2 52137  53.2166 206.8579 0001846  61.2817 315.0598 15.08826793  1308,6917.920999999999,95.438,541.063,538.509,0.0
52137.0,STARLINK-3733,PAYLOAD,2022-08-04 14:00:01,15.08865803,0.0001988,53.2168,203.8665,55.3073,344.1675,-0.0019233,-0.00030789,0.0,0 STARLINK-3733,1 52137U 22029BB  22216.58334491 -.00030789  00000-0 -19233-2 0  9992,2 52137  53.2168 203.8665 0001988  55.3073 344.1675 15.08865803  1302,6917.802,95.436,541.0419999999998,538.2909999999998,0.0
52137.0,STARLINK-3733,PAYLOAD,2022-08-04 22:00:00,15.08840007,0.0001985,53.2171,202.3768,59.5029,351.5897,-0.00028307,-4.791e-05,0.0,0 STARLINK-3733,1 52137U 22029BB  22216.91667824 -.00004791  00000-0 -28307-3 0  9995,2 52137  53.2171 202.3768 0001985  59.5029 351.5897 15.08840007  1305,6917.88,95.438,541.119,538.372,0.0
52137.0,STARLINK-3733,PAYLOAD,2022-08-05 06:00:02,15.08838683,0.0002000999999999,53.2171,200.8743,55.8503,6.9141,-0.0014414,-0.00023154,0.0,0 STARLINK-3733,1 52137U 22029BB  22217.25002315 -.00023154  00000-0 -14414-2 0  9998,2 52137  53.2171 200.8743 0002001  55.8503   6.9141 15.08838683 22805,6917.884,95.438,541.134,538.365,0.0
52137.0,STARLINK-3733,PAYLOAD,2022-08-05 14:00:01,15.08847842,0.0001946,53.217,199.3774,55.1541,19.1896,-0.0019964,-0.00031928,0.0,0 STARLINK-3733,1 52137U 22029BB  22217.58335648 -.00031928  00000-0 -19964-2 0  9995,2 52137  53.2170 199.3774 0001946  55.1541  19.1896 15.08847842  1304,6917.856,95.437,541.068,538.375,0.0
52137.0,STARLINK-3733,PAYLOAD,2022-08-05 22:00:00,15.08824963,0.0001872,53.2172,197.88,61.9417,23.9318,0.001832,0.00028977,0.0,0 STARLINK-3733,1 52137U 22029BB  22217.91667824  .00028977  00000-0  18320-2 0  9999,2 52137  53.2172 197.8800 0001872  61.9417  23.9318 15.08824963 22904,6917.926,95.439,541.086,538.496,0.0
52137.0,STARLINK-3733,PAYLOAD,2022-08-06 14:00:01,15.08856846,0.0001955999999999,53.2167,194.8884,57.307,51.7451,-0.002035,-0.00032545,0.0,0 STARLINK-3733,1 52137U 22029BB  22218.58334491 -.00032545  00000-0 -20350-2 0  9998,2 52137  53.2167 194.8884 0001956  57.3070  51.7451 15.08856846 23008,6917.829000000002,95.436,541.047,538.341,0.0
52137.0,STARLINK-3733,PAYLOAD,2022-08-06 21:28:04,15.08842743,0.0001915,53.2179,193.4912,60.4869,299.6314,-4.3249e-05,-9.76e-06,0.0,0 STARLINK-3733,1 52137U 22029BB  22218.89449876 -.00000976  00000-0 -43249-4 0  9993,2 52137  53.2179 193.4912 0001915  60.4869 299.6314 15.08842743 23051,6917.871999999999,95.437,541.062,538.4119999999998,0.0
52137.0,STARLINK-3733,PAYLOAD,2022-08-07 02:14:14,15.088432,0.0001931,53.2178,192.5993,60.387,299.7315,-3.4142e-05,-8.32e-06,0.0,0 STARLINK-3733,1 52137U 22029BB  22219.09321771 -.00000832  00000-0 -34142-4 0  9992,2 52137  53.2178 192.5993 0001931  60.3870 299.7315 15.08843200 23082,6917.871,95.437,541.071,538.4,0.0
52137.0,STARLINK-3733,PAYLOAD,2022-08-07 14:00:01,15.08864165,0.0001947,53.2162,190.3994,59.69600000000001,84.1576,-0.0020694,-0.00033094,0.0,0 STARLINK-3733,1 52137U 22029BB  22219.58334491 -.00033094  00000-0 -20694-2 0  9990,2 52137  53.2162 190.3994 0001947  59.6960  84.1576 15.08864165  1309,6917.807,95.436,541.018,538.325,0.0
52137.0,STARLINK-3733,PAYLOAD,2022-08-07 22:00:00,15.08858699,0.0001863,53.2164,188.9022,65.6466,89.8178,-0.0018616,-0.00029809,0.0,0 STARLINK-3733,1 52137U 22029BB  22219.91667824 -.00029809  00000-0 -18616-2 0  9996,2 52137  53.2164 188.9022 0001863  65.6466  89.8178 15.08858699  1306,6917.823,95.436,540.977,538.399,0.0
52137.0,STARLINK-3733,PAYLOAD,2022-08-08 06:00:00,15.08825977,0.0001942,53.2161,187.4077,58.5966,108.4808,0.00072788,0.00011311,0.0,0 STARLINK-3733,1 52137U 22029BB  22220.25001157  .00011311  00000-0  72788-3 0  9994,2 52137  53.2161 187.4077 0001942  58.5966 108.4808 15.08825977 23250,6917.9230000000025,95.438,541.132,538.445,0.0
52137.0,STARLINK-3733,PAYLOAD,2022-08-08 14:00:01,15.08856174,0.0001859,53.2157,185.9102,60.8952,117.8304,-0.001552,-0.00024915,0.0,0 STARLINK-3733,1 52137U 22029BB  22220.58335648 -.00024915  00000-0 -15520-2 0  9991,2 52137  53.2157 185.9102 0001859  60.8952 117.8304 15.08856174  1305,6917.831,95.437,540.982,538.41,0.0
52137.0,STARLINK-3733,PAYLOAD,2022-08-08 22:00:00,15.08858648,0.0001828,53.2159,184.4133,66.6781,123.5842,-0.00018692,-3.263e-05,0.0,0 STARLINK-3733,1 52137U 22029BB  22220.91667824 -.00003263  00000-0 -18692-3 0  9999,2 52137  53.2159 184.4133 0001828  66.6781 123.5842 15.08858648  1304,6917.823,95.436,540.953,538.424,0.0
52137.0,STARLINK-3733,PAYLOAD,2022-08-09 14:00:01,15.08849053,0.0001771,53.2156,181.421,60.0368,153.4237,-0.0019582999999999,-0.00031327,0.0,0 STARLINK-3733,1 52137U 22029BB  22221.58334491 -.00031327  00000-0 -19583-2 0  9995,2 52137  53.2156 181.4210 0001771  60.0368 153.4237 15.08849053 23450,6917.853,95.437,540.943,538.493,0.0
52137.0,STARLINK-3733,PAYLOAD,2022-08-09 22:00:00,15.08837153,0.0001738,53.2159,179.9242,64.6142,160.4343,-0.0014002,-0.00022502,0.0,0 STARLINK-3733,1 52137U 22029BB  22221.91667824 -.00022502  00000-0 -14002-2 0  9997,2 52137  53.2159 179.9242 0001738  64.6142 160.4343 15.08837153  1307,6917.889,95.438,540.956,538.552,0.0
